CCSDS_OMM_VERS = 2.0
CREATION_DATE  = 
ORIGINATOR     = 

OBJECT_NAME    = ERS-1
OBJECT_ID      = 1991-050A
CENTER_NAME    = EARTH
REF_FRAME      = TEME
TIME_SYSTEM    = UTC
MEAN_ELEMENT_THEORY = SGP/SGP4

EPOCH          = 2026-03-28T01:09:21.087072
MEAN_MOTION    = 14.39462841
ECCENTRICITY   = .0032649
INCLINATION    = 98.7867
RA_OF_ASC_NODE = 105.7434
ARG_OF_PERICENTER = 146.2502
MEAN_ANOMALY   = 214.0772

EPHEMERIS_TYPE = 0
CLASSIFICATION_TYPE = U
NORAD_CAT_ID   = 21574
ELEMENT_SET_NO = 999
REV_AT_EPOCH   = 81837
BSTAR          = .11501E-3
MEAN_MOTION_DOT = .314E-5
MEAN_MOTION_DDOT = 0

CCSDS_OMM_VERS = 2.0
CREATION_DATE  = 
ORIGINATOR     = 

OBJECT_NAME    = ARIANE 40 R/B
OBJECT_ID      = 1991-050F
CENTER_NAME    = EARTH
REF_FRAME      = TEME
TIME_SYSTEM    = UTC
MEAN_ELEMENT_THEORY = SGP/SGP4

EPOCH          = 2026-03-28T02:59:41.138880
MEAN_MOTION    = 14.42906561
ECCENTRICITY   = .0003585
INCLINATION    = 98.1974
RA_OF_ASC_NODE = 138.6661
ARG_OF_PERICENTER = 39.4221
MEAN_ANOMALY   = 320.7230

EPHEMERIS_TYPE = 0
CLASSIFICATION_TYPE = U
NORAD_CAT_ID   = 21610
ELEMENT_SET_NO = 999
REV_AT_EPOCH   = 82165
BSTAR          = .98248E-4
MEAN_MOTION_DOT = .287E-5
MEAN_MOTION_DDOT = 0

CCSDS_OMM_VERS = 2.0
CREATION_DATE  = 
ORIGINATOR     = 

OBJECT_NAME    = INTERCOSMOS 25
OBJECT_ID      = 1991-086A
CENTER_NAME    = EARTH
REF_FRAME      = TEME
TIME_SYSTEM    = UTC
MEAN_ELEMENT_THEORY = SGP/SGP4

EPOCH          = 2026-03-28T01:34:41.163744
MEAN_MOTION    = 12.12060072
ECCENTRICITY   = .1486552
INCLINATION    = 82.6015
RA_OF_ASC_NODE = 298.8992
ARG_OF_PERICENTER = 77.3398
MEAN_ANOMALY   = 298.9287

EPHEMERIS_TYPE = 0
CLASSIFICATION_TYPE = U
NORAD_CAT_ID   = 21819
ELEMENT_SET_NO = 999
REV_AT_EPOCH   = 49891
BSTAR          = .30611E-3
MEAN_MOTION_DOT = .1597E-4
MEAN_MOTION_DDOT = 0

CCSDS_OMM_VERS = 2.0
CREATION_DATE  = 
ORIGINATOR     = 

OBJECT_NAME    = SL-8 R/B
OBJECT_ID      = 1992-008B
CENTER_NAME    = EARTH
REF_FRAME      = TEME
TIME_SYSTEM    = UTC
MEAN_ELEMENT_THEORY = SGP/SGP4

EPOCH          = 2026-03-28T05:08:50.642592
MEAN_MOTION    = 13.75969555
ECCENTRICITY   = .0035871
INCLINATION    = 82.9229
RA_OF_ASC_NODE = 253.9941
ARG_OF_PERICENTER = 83.3592
MEAN_ANOMALY   = 89.3729

EPHEMERIS_TYPE = 0
CLASSIFICATION_TYPE = U
NORAD_CAT_ID   = 21876
ELEMENT_SET_NO = 999
REV_AT_EPOCH   = 71196
BSTAR          = -.69489E-5
MEAN_MOTION_DOT = .9E-7
MEAN_MOTION_DDOT = 0

CCSDS_OMM_VERS = 2.0
CREATION_DATE  = 
ORIGINATOR     = 

OBJECT_NAME    = SL-8 R/B
OBJECT_ID      = 1992-020B
CENTER_NAME    = EARTH
REF_FRAME      = TEME
TIME_SYSTEM    = UTC
MEAN_ELEMENT_THEORY = SGP/SGP4

EPOCH          = 2026-03-28T03:46:58.198656
MEAN_MOTION    = 13.75550530
ECCENTRICITY   = .0027744
INCLINATION    = 82.9304
RA_OF_ASC_NODE = 140.0497
ARG_OF_PERICENTER = 244.7951
MEAN_ANOMALY   = 125.0510

EPHEMERIS_TYPE = 0
CLASSIFICATION_TYPE = U
NORAD_CAT_ID   = 21938
ELEMENT_SET_NO = 999
REV_AT_EPOCH   = 70367
BSTAR          = .20073E-4
MEAN_MOTION_DOT = .34E-6
MEAN_MOTION_DDOT = 0

CCSDS_OMM_VERS = 2.0
CREATION_DATE  = 
ORIGINATOR     = 

OBJECT_NAME    = USA 81
OBJECT_ID      = 1992-023A
CENTER_NAME    = EARTH
REF_FRAME      = TEME
TIME_SYSTEM    = UTC
MEAN_ELEMENT_THEORY = SGP/SGP4

EPOCH          = 2026-03-28T04:06:19.845792
MEAN_MOTION    = 14.32373810
ECCENTRICITY   = .0001805
INCLINATION    = 85.0048
RA_OF_ASC_NODE = 120.7757
ARG_OF_PERICENTER = 68.0080
MEAN_ANOMALY   = 292.1304

EPHEMERIS_TYPE = 0
CLASSIFICATION_TYPE = U
NORAD_CAT_ID   = 21949
ELEMENT_SET_NO = 999
REV_AT_EPOCH   = 9743
BSTAR          = .5999E-4
MEAN_MOTION_DOT = .182E-5
MEAN_MOTION_DDOT = 0

CCSDS_OMM_VERS = 2.0
CREATION_DATE  = 
ORIGINATOR     = 

OBJECT_NAME    = COSMOS 2219
OBJECT_ID      = 1992-076A
CENTER_NAME    = EARTH
REF_FRAME      = TEME
TIME_SYSTEM    = UTC
MEAN_ELEMENT_THEORY = SGP/SGP4

EPOCH          = 2026-03-28T03:00:08.527680
MEAN_MOTION    = 14.14091030
ECCENTRICITY   = .001795
INCLINATION    = 71.0624
RA_OF_ASC_NODE = 339.5339
ARG_OF_PERICENTER = 180.0408
MEAN_ANOMALY   = 180.0716

EPHEMERIS_TYPE = 0
CLASSIFICATION_TYPE = U
NORAD_CAT_ID   = 22219
ELEMENT_SET_NO = 999
REV_AT_EPOCH   = 72098
BSTAR          = -.10279E-3
MEAN_MOTION_DOT = -.243E-5
MEAN_MOTION_DDOT = 0

CCSDS_OMM_VERS = 2.0
CREATION_DATE  = 
ORIGINATOR     = 

OBJECT_NAME    = SL-16 R/B
OBJECT_ID      = 1992-076B
CENTER_NAME    = EARTH
REF_FRAME      = TEME
TIME_SYSTEM    = UTC
MEAN_ELEMENT_THEORY = SGP/SGP4

EPOCH          = 2026-03-28T04:26:08.657952
MEAN_MOTION    = 14.16864005
ECCENTRICITY   = .0010682
INCLINATION    = 70.9998
RA_OF_ASC_NODE = 149.4172
ARG_OF_PERICENTER = 61.7448
MEAN_ANOMALY   = 314.2125

EPHEMERIS_TYPE = 0
CLASSIFICATION_TYPE = U
NORAD_CAT_ID   = 22220
ELEMENT_SET_NO = 999
REV_AT_EPOCH   = 72445
BSTAR          = -.22291E-4
MEAN_MOTION_DOT = -.93E-6
MEAN_MOTION_DDOT = 0

CCSDS_OMM_VERS = 2.0
CREATION_DATE  = 
ORIGINATOR     = 

OBJECT_NAME    = COSMOS 2221
OBJECT_ID      = 1992-080A
CENTER_NAME    = EARTH
REF_FRAME      = TEME
TIME_SYSTEM    = UTC
MEAN_ELEMENT_THEORY = SGP/SGP4

EPOCH          = 2026-03-27T23:04:28.848000
MEAN_MOTION    = 14.96273973
ECCENTRICITY   = .0015446
INCLINATION    = 82.5007
RA_OF_ASC_NODE = 261.5731
ARG_OF_PERICENTER = 128.0898
MEAN_ANOMALY   = 232.1720

EPHEMERIS_TYPE = 0
CLASSIFICATION_TYPE = U
NORAD_CAT_ID   = 22236
ELEMENT_SET_NO = 999
REV_AT_EPOCH   = 78352
BSTAR          = .21456E-3
MEAN_MOTION_DOT = .2454E-4
MEAN_MOTION_DDOT = 0

CCSDS_OMM_VERS = 2.0
CREATION_DATE  = 
ORIGINATOR     = 

OBJECT_NAME    = SL-16 R/B
OBJECT_ID      = 1992-093B
CENTER_NAME    = EARTH
REF_FRAME      = TEME
TIME_SYSTEM    = UTC
MEAN_ELEMENT_THEORY = SGP/SGP4

EPOCH          = 2026-03-28T02:43:45.926400
MEAN_MOTION    = 14.15454171
ECCENTRICITY   = .0006475
INCLINATION    = 71.0231
RA_OF_ASC_NODE = 325.5916
ARG_OF_PERICENTER = 275.7788
MEAN_ANOMALY   = 84.2596

EPHEMERIS_TYPE = 0
CLASSIFICATION_TYPE = U
NORAD_CAT_ID   = 22285
ELEMENT_SET_NO = 999
REV_AT_EPOCH   = 71576
BSTAR          = .1355E-3
MEAN_MOTION_DOT = .217E-5
MEAN_MOTION_DDOT = 0

CCSDS_OMM_VERS = 2.0
CREATION_DATE  = 
ORIGINATOR     = 

OBJECT_NAME    = COSMOS 2228
OBJECT_ID      = 1992-094A
CENTER_NAME    = EARTH
REF_FRAME      = TEME
TIME_SYSTEM    = UTC
MEAN_ELEMENT_THEORY = SGP/SGP4

EPOCH          = 2026-03-28T03:59:09.703392
MEAN_MOTION    = 14.97282792
ECCENTRICITY   = .0016801
INCLINATION    = 82.5183
RA_OF_ASC_NODE = 219.6193
ARG_OF_PERICENTER = 237.2352
MEAN_ANOMALY   = 122.7253

EPHEMERIS_TYPE = 0
CLASSIFICATION_TYPE = U
NORAD_CAT_ID   = 22286
ELEMENT_SET_NO = 999
REV_AT_EPOCH   = 77882
BSTAR          = .26596E-3
MEAN_MOTION_DOT = .3115E-4
MEAN_MOTION_DDOT = 0

CCSDS_OMM_VERS = 2.0
CREATION_DATE  = 
ORIGINATOR     = 

OBJECT_NAME    = SL-16 R/B
OBJECT_ID      = 1993-016B
CENTER_NAME    = EARTH
REF_FRAME      = TEME
TIME_SYSTEM    = UTC
MEAN_ELEMENT_THEORY = SGP/SGP4

EPOCH          = 2026-03-28T05:26:22.858944
MEAN_MOTION    = 14.15305420
ECCENTRICITY   = .0012331
INCLINATION    = 71.0077
RA_OF_ASC_NODE = 176.2509
ARG_OF_PERICENTER = 290.1918
MEAN_ANOMALY   = 69.7878

EPHEMERIS_TYPE = 0
CLASSIFICATION_TYPE = U
NORAD_CAT_ID   = 22566
ELEMENT_SET_NO = 999
REV_AT_EPOCH   = 70479
BSTAR          = .24224E-5
MEAN_MOTION_DOT = -.43E-6
MEAN_MOTION_DDOT = 0

